start=new Date('2021-10-12T00:00:00.000Z').valueOf();
sats=[{"OBJECT_NAME":"STARLINK-1699","SEMIMAJOR_AXIS":"6925.346","REV_AT_EPOCH":"5687","OBJECT_TYPE":"PAYLOAD","REF_FRAME":"TEME","PERIOD":"95.592","ELEMENT_SET_NO":"999","TLE_LINE2":"2 46548  53.0561 203.1516 0001624  71.7594 288.3571 15.06400696 56870","FILE":"3157563","MEAN_MOTION_DDOT":"0.0000000000000","APOAPSIS":"548.336","TIME_SYSTEM":"UTC","CLASSIFICATION_TYPE":"U","OBJECT_ID":"2020-070S","BSTAR":"0.00001454100000","EPHEMERIS_TYPE":"0","LAUNCH_DATE":"2020-10-06","MEAN_MOTION":"15.06400696","SITE":"AFETR","RA_OF_ASC_NODE":"203.1516","ECCENTRICITY":"0.00016240","EPOCH":"2021-10-11T22:09:48.322944","NORAD_CAT_ID":"46548","COUNTRY_CODE":"US","PERIAPSIS":"546.087","DECAY_DATE":null,"GP_ID":"186928952","TLE_LINE1":"1 46548U 20070S   21284.92347596 -.00000065  00000-0  14541-4 0  9999","MEAN_MOTION_DOT":"-0.00000065","MEAN_ELEMENT_THEORY":"SGP4","ARG_OF_PERICENTER":"71.7594","CENTER_NAME":"EARTH","INCLINATION":"53.0561","RCS_SIZE":"LARGE","MEAN_ANOMALY":"288.3571"},{"OBJECT_TYPE":"PAYLOAD","REF_FRAME":"TEME","OBJECT_NAME":"STARLINK-1700","REV_AT_EPOCH":"5680","SEMIMAJOR_AXIS":"6925.361","OBJECT_ID":"2020-070T","CLASSIFICATION_TYPE":"U","EPHEMERIS_TYPE":"0","BSTAR":"0.00016927000000","SITE":"AFETR","MEAN_MOTION":"15.06396036","LAUNCH_DATE":"2020-10-06","ECCENTRICITY":"0.00018100","EPOCH":"2021-10-11T11:42:08.916480","RA_OF_ASC_NODE":"205.1012","TLE_LINE2":"2 46549  53.0531 205.1012 0001810  70.3241 289.7943 15.06396036 56805","ELEMENT_SET_NO":"999","PERIOD":"95.592","MEAN_MOTION_DDOT":"0.0000000000000","FILE":"3157068","APOAPSIS":"548.479","TIME_SYSTEM":"UTC","MEAN_ELEMENT_THEORY":"SGP4","ARG_OF_PERICENTER":"70.3241","CENTER_NAME":"EARTH","INCLINATION":"53.0531","COUNTRY_CODE":"US","NORAD_CAT_ID":"46549","DECAY_DATE":null,"PERIAPSIS":"545.972","GP_ID":"186895000","MEAN_MOTION_DOT":"0.00002240","TLE_LINE1":"1 46549U 20070T   21284.48760320  .00002240  00000-0  16927-3 0  9990","MEAN_ANOMALY":"289.7943","RCS_SIZE":"LARGE"},{"REF_FRAME":"TEME","OBJECT_TYPE":"PAYLOAD","OBJECT_NAME":"STARLINK-1701","REV_AT_EPOCH":"5682","SEMIMAJOR_AXIS":"6925.348","EPHEMERIS_TYPE":"0","BSTAR":"0.00017459000000","OBJECT_ID":"2020-070U","CLASSIFICATION_TYPE":"U","EPOCH":"2021-10-11T11:22:16.053888","ECCENTRICITY":"0.00017530","RA_OF_ASC_NODE":"205.1613","MEAN_MOTION":"15.06400119","SITE":"AFETR","LAUNCH_DATE":"2020-10-06","MEAN_MOTION_DDOT":"0.0000000000000","FILE":"3156888","TLE_LINE2":"2 46550  53.0546 205.1613 0001753  66.7480 293.3694 15.06400119 56824","ELEMENT_SET_NO":"999","PERIOD":"95.592","TIME_SYSTEM":"UTC","APOAPSIS":"548.427","MEAN_ELEMENT_THEORY":"SGP4","CENTER_NAME":"EARTH","INCLINATION":"53.0546","ARG_OF_PERICENTER":"66.7480","DECAY_DATE":null,"PERIAPSIS":"545.999","COUNTRY_CODE":"US","NORAD_CAT_ID":"46550","MEAN_MOTION_DOT":"0.00002320","TLE_LINE1":"1 46550U 20070U   21284.47379692  .00002320  00000-0  17459-3 0  9999","GP_ID":"186869810","MEAN_ANOMALY":"293.3694","RCS_SIZE":"LARGE"},{"CLASSIFICATION_TYPE":"U","OBJECT_ID":"2020-070W","BSTAR":"0.00006762400000","EPHEMERIS_TYPE":"0","LAUNCH_DATE":"2020-10-06","MEAN_MOTION":"15.06400822","SITE":"AFETR","RA_OF_ASC_NODE":"188.2634","ECCENTRICITY":"0.00017640","EPOCH":"2021-10-11T21:31:59.314656","PERIOD":"95.592","ELEMENT_SET_NO":"999","TLE_LINE2":"2 46552  53.0536 188.2634 0001764  68.1972 291.9204 15.06400822 57084","FILE":"3157563","MEAN_MOTION_DDOT":"0.0000000000000","APOAPSIS":"548.433","TIME_SYSTEM":"UTC","OBJECT_TYPE":"PAYLOAD","REF_FRAME":"TEME","OBJECT_NAME":"STARLINK-1649","REV_AT_EPOCH":"5708","SEMIMAJOR_AXIS":"6925.346","MEAN_ANOMALY":"291.9204","RCS_SIZE":"LARGE","MEAN_ELEMENT_THEORY":"SGP4","ARG_OF_PERICENTER":"68.1972","CENTER_NAME":"EARTH","INCLINATION":"53.0536","NORAD_CAT_ID":"46552","COUNTRY_CODE":"US","PERIAPSIS":"545.989","DECAY_DATE":null,"GP_ID":"186928702","TLE_LINE1":"1 46552U 20070W   21284.89721429  .00000726  00000-0  67624-4 0  9994","MEAN_MOTION_DOT":"0.00000726"},{"EPHEMERIS_TYPE":"0","BSTAR":"0.00007625400000","OBJECT_ID":"2020-070X","CLASSIFICATION_TYPE":"U","ECCENTRICITY":"0.00017590","EPOCH":"2021-10-11T22:12:25.573536","RA_OF_ASC_NODE":"173.1400","SITE":"AFETR","MEAN_MOTION":"15.06402669","LAUNCH_DATE":"2020-10-06","FILE":"3157563","MEAN_MOTION_DDOT":"0.0000000000000","TLE_LINE2":"2 46553  53.0539 173.1400 0001759  70.2810 289.8368 15.06402669 57292","ELEMENT_SET_NO":"999","PERIOD":"95.592","TIME_SYSTEM":"UTC","APOAPSIS":"548.424","REF_FRAME":"TEME","OBJECT_TYPE":"PAYLOAD","OBJECT_NAME":"STARLINK-1664","REV_AT_EPOCH":"5729","SEMIMAJOR_AXIS":"6925.340","MEAN_ANOMALY":"289.8368","RCS_SIZE":"LARGE","MEAN_ELEMENT_THEORY":"SGP4","INCLINATION":"53.0539","CENTER_NAME":"EARTH","ARG_OF_PERICENTER":"70.2810","DECAY_DATE":null,"PERIAPSIS":"545.987","COUNTRY_CODE":"US","NORAD_CAT_ID":"46553","MEAN_MOTION_DOT":"0.00000854","TLE_LINE1":"1 46553U 20070X   21284.92529599  .00000854  00000-0  76254-4 0  9994","GP_ID":"186929452"},{"PERIAPSIS":"546.009","DECAY_DATE":null,"NORAD_CAT_ID":"46554","COUNTRY_CODE":"US","TLE_LINE1":"1 46554U 20070Y   21284.91196538  .00000010  00000-0  19595-4 0  9996","MEAN_MOTION_DOT":"0.00000010","GP_ID":"186929704","MEAN_ELEMENT_THEORY":"SGP4","INCLINATION":"53.0535","CENTER_NAME":"EARTH","ARG_OF_PERICENTER":"64.1188","RCS_SIZE":"LARGE","MEAN_ANOMALY":"295.9982","OBJECT_NAME":"STARLINK-1671","REV_AT_EPOCH":"5708","SEMIMAJOR_AXIS":"6925.364","REF_FRAME":"TEME","OBJECT_TYPE":"PAYLOAD","FILE":"3157563","MEAN_MOTION_DDOT":"0.0000000000000","ELEMENT_SET_NO":"999","PERIOD":"95.592","TLE_LINE2":"2 46554  53.0535 188.1993 0001762  64.1188 295.9982 15.06394863 57089","TIME_SYSTEM":"UTC","APOAPSIS":"548.450","BSTAR":"0.00001959500000","EPHEMERIS_TYPE":"0","CLASSIFICATION_TYPE":"U","OBJECT_ID":"2020-070Y","RA_OF_ASC_NODE":"188.1993","EPOCH":"2021-10-11T21:53:13.808832","ECCENTRICITY":"0.00017620","LAUNCH_DATE":"2020-10-06","SITE":"AFETR","MEAN_MOTION":"15.06394863"},{"RCS_SIZE":"LARGE","MEAN_ANOMALY":"232.9972","GP_ID":"186907439","TLE_LINE1":"1 46555U 20070Z   21284.92837107  .00007643  00000-0  63136-4 0  9991","MEAN_MOTION_DOT":"0.00007643","NORAD_CAT_ID":"46555","COUNTRY_CODE":"US","PERIAPSIS":"353.980","DECAY_DATE":null,"ARG_OF_PERICENTER":"127.0551","INCLINATION":"53.0494","CENTER_NAME":"EARTH","MEAN_ELEMENT_THEORY":"SGP4","APOAPSIS":"355.322","TIME_SYSTEM":"UTC","ELEMENT_SET_NO":"999","PERIOD":"91.633","TLE_LINE2":"2 46555  53.0494 151.8616 0000996 127.0551 232.9972 15.71486111 57590","MEAN_MOTION_DDOT":"0.0000000000000","FILE":"3157530","LAUNCH_DATE":"2020-10-06","MEAN_MOTION":"15.71486111","SITE":"AFETR","RA_OF_ASC_NODE":"151.8616","EPOCH":"2021-10-11T22:16:51.260448","ECCENTRICITY":"0.00009960","CLASSIFICATION_TYPE":"U","OBJECT_ID":"2020-070Z","BSTAR":"0.00006313600000","EPHEMERIS_TYPE":"0","SEMIMAJOR_AXIS":"6732.786","REV_AT_EPOCH":"5759","OBJECT_NAME":"STARLINK-1674","OBJECT_TYPE":"PAYLOAD","REF_FRAME":"TEME"},{"OBJECT_TYPE":"PAYLOAD","REF_FRAME":"TEME","SEMIMAJOR_AXIS":"6925.356","REV_AT_EPOCH":"5685","OBJECT_NAME":"STARLINK-1676","LAUNCH_DATE":"2020-10-06","MEAN_MOTION":"15.06397666","SITE":"AFETR","RA_OF_ASC_NODE":"203.8239","EPOCH":"2021-10-11T18:32:11.810688","ECCENTRICITY":"0.00018540","CLASSIFICATION_TYPE":"U","OBJECT_ID":"2020-070AA","BSTAR":"0.00017213000000","EPHEMERIS_TYPE":"0","APOAPSIS":"548.505","TIME_SYSTEM":"UTC","ELEMENT_SET_NO":"999","PERIOD":"95.592","TLE_LINE2":"2 46556  53.0550 203.8239 0001854  72.3179 287.8012 15.06397666 56851","FILE":"3157563","MEAN_MOTION_DDOT":"0.0000000000000","ARG_OF_PERICENTER":"72.3179","CENTER_NAME":"EARTH","INCLINATION":"53.0550","MEAN_ELEMENT_THEORY":"SGP4","GP_ID":"186929202","TLE_LINE1":"1 46556U 20070AA  21284.77235892  .00002283  00000-0  17213-3 0  9997","MEAN_MOTION_DOT":"0.00002283","NORAD_CAT_ID":"46556","COUNTRY_CODE":"US","PERIAPSIS":"545.937","DECAY_DATE":null,"MEAN_ANOMALY":"287.8012","RCS_SIZE":"LARGE"},{"TIME_SYSTEM":"UTC","APOAPSIS":"548.478","FILE":"3157563","MEAN_MOTION_DDOT":"0.0000000000000","PERIOD":"95.592","ELEMENT_SET_NO":"999","TLE_LINE2":"2 46557  53.0546 188.0289 0001821  71.1006 289.0180 15.06398826 57092","RA_OF_ASC_NODE":"188.0289","EPOCH":"2021-10-11T22:46:18.352992","ECCENTRICITY":"0.00018210","LAUNCH_DATE":"2020-10-06","MEAN_MOTION":"15.06398826","SITE":"AFETR","BSTAR":"0.00008352900000","EPHEMERIS_TYPE":"0","CLASSIFICATION_TYPE":"U","OBJECT_ID":"2020-070AB","REV_AT_EPOCH":"5709","SEMIMAJOR_AXIS":"6925.352","OBJECT_NAME":"STARLINK-1679","REF_FRAME":"TEME","OBJECT_TYPE":"PAYLOAD","RCS_SIZE":"LARGE","MEAN_ANOMALY":"289.0180","TLE_LINE1":"1 46557U 20070AB  21284.94882353  .00000963  00000-0  83529-4 0  9994","MEAN_MOTION_DOT":"0.00000963","GP_ID":"186928953","PERIAPSIS":"545.956","DECAY_DATE":null,"NORAD_CAT_ID":"46557","COUNTRY_CODE":"US","CENTER_NAME":"EARTH","INCLINATION":"53.0546","ARG_OF_PERICENTER":"71.1006","MEAN_ELEMENT_THEORY":"SGP4"},{"CENTER_NAME":"EARTH","INCLINATION":"53.0535","ARG_OF_PERICENTER":"70.8547","MEAN_ELEMENT_THEORY":"SGP4","MEAN_MOTION_DOT":"0.00002475","TLE_LINE1":"1 46558U 20070AC  21284.88984964  .00002475  00000-0  18499-3 0  9992","GP_ID":"186930204","DECAY_DATE":null,"PERIAPSIS":"545.919","COUNTRY_CODE":"US","NORAD_CAT_ID":"46558","MEAN_ANOMALY":"289.2642","RCS_SIZE":"LARGE","REF_FRAME":"TEME","OBJECT_TYPE":"PAYLOAD","REV_AT_EPOCH":"5705","SEMIMAJOR_AXIS":"6925.334","OBJECT_NAME":"STARLINK-1680","ECCENTRICITY":"0.00018490","EPOCH":"2021-10-11T21:21:23.008896","RA_OF_ASC_NODE":"188.2991","SITE":"AFETR","MEAN_MOTION":"15.06404588","LAUNCH_DATE":"2020-10-06","EPHEMERIS_TYPE":"0","BSTAR":"0.00018499000000","OBJECT_ID":"2020-070AC","CLASSIFICATION_TYPE":"U","TIME_SYSTEM":"UTC","APOAPSIS":"548.480","FILE":"3157563","MEAN_MOTION_DDOT":"0.0000000000000","TLE_LINE2":"2 46558  53.0535 188.2991 0001849  70.8547 289.2642 15.06404588 57053","PERIOD":"95.592","ELEMENT_SET_NO":"999"}];
